"CCSDS_OMM_VERS","COMMENT","CREATION_DATE","ORIGINATOR","OBJECT_NAME","OBJECT_ID","CENTER_NAME","REF_FRAME","TIME_SYSTEM","MEAN_ELEMENT_THEORY","EPOCH","MEAN_MOTION","ECCENTRICITY","INCLINATION","RA_OF_ASC_NODE","ARG_OF_PERICENTER","MEAN_ANOMALY","EPHEMERIS_TYPE","CLASSIFICATION_TYPE","NORAD_CAT_ID","ELEMENT_SET_NO","REV_AT_EPOCH","BSTAR","MEAN_MOTION_DOT","MEAN_MOTION_DDOT","SEMIMAJOR_AXIS","PERIOD","APOAPSIS","PERIAPSIS","OBJECT_TYPE","RCS_SIZE","COUNTRY_CODE","LAUNCH_DATE","SITE","DECAY_DATE","FILE","GP_ID","TLE_LINE0","TLE_LINE1","TLE_LINE2"
"2.0","GENERATED VIA SPACE-TRACK.ORG API","2022-10-27T06:26:12","18 SPCS","CARTOSAT 3","2019-081A","EARTH","TEME","UTC","SGP4","2022-10-27T03:42:39.511008","15.19309621","0.00138810","97.3831","358.9311","115.3320","270.3800","0","U","44804","999","16163","0.00017294000000","0.00003592","0.0000000000000","6886.063","94.780","517.486","498.369","PAYLOAD","LARGE","IND","2019-11-27","SRI",null,"3635120","216268577","0 CARTOSAT 3","1 44804U 19081A   22300.15462397  .00003592  00000-0  17294-3 0  9998","2 44804  97.3831 358.9311 0013881 115.3320 270.3800 15.19309621161633"
"2.0","GENERATED VIA SPACE-TRACK.ORG API","2022-10-27T14:16:13","18 SPCS","CARTOSAT 3","2019-081A","EARTH","TEME","UTC","SGP4","2022-10-27T10:28:42.881952","15.19311910","0.00138650","97.3832","359.2068","114.1922","12.8480","0","U","44804","999","16167","0.00017510000000","0.00003638","0.0000000000000","6886.056","94.780","517.468","498.373","PAYLOAD","LARGE","IND","2019-11-27","SRI",null,"3635467","216275531","0 CARTOSAT 3","1 44804U 19081A   22300.43660743  .00003638  00000-0  17510-3 0  9996","2 44804  97.3832 359.2068 0013865 114.1922  12.8480 15.19311910161675"
"2.0","GENERATED VIA SPACE-TRACK.ORG API","2022-10-27T19:20:48","18 SPCS","CARTOSAT 3","2019-081A","EARTH","TEME","UTC","SGP4","2022-10-27T10:28:42.881952","15.19311910","0.00138650","97.3832","359.2068","114.1922","12.8480","0","U","44804","999","16167","0.00017510000000","0.00003638","0.0000000000000","6886.056","94.780","517.468","498.373","PAYLOAD","LARGE","IND","2019-11-27","SRI",null,"3635758","216301845","0 CARTOSAT 3","1 44804U 19081A   22300.43660743  .00003638  00000-0  17510-3 0  9996","2 44804  97.3832 359.2068 0013865 114.1922  12.8480 15.19311910161675"
"2.0","GENERATED VIA SPACE-TRACK.ORG API","2022-10-27T22:36:12","18 SPCS","CARTOSAT 3","2019-081A","EARTH","TEME","UTC","SGP4","2022-10-27T18:18:03.710016","15.19313966","0.00138920","97.3831","359.5254","113.2716","355.3410","0","U","44804","999","16172","0.00017316000000","0.00003597","0.0000000000000","6886.050","94.780","517.481","498.349","PAYLOAD","LARGE","IND","2019-11-27","SRI",null,"3635784","216308376","0 CARTOSAT 3","1 44804U 19081A   22300.76254294  .00003597  00000-0  17316-3 0  9990","2 44804  97.3831 359.5254 0013892 113.2716 355.3410 15.19313966161722"
"2.0","GENERATED VIA SPACE-TRACK.ORG API","2022-10-28T04:08:14","18 SPCS","CARTOSAT 3","2019-081A","EARTH","TEME","UTC","SGP4","2022-10-27T18:18:03.710016","15.19313966","0.00138920","97.3831","359.5254","113.2716","355.3410","0","U","44804","999","16172","0.00017316000000","0.00003597","0.0000000000000","6886.050","94.780","517.481","498.349","PAYLOAD","LARGE","IND","2019-11-27","SRI",null,"3636022","216333082","0 CARTOSAT 3","1 44804U 19081A   22300.76254294  .00003597  00000-0  17316-3 0  9990","2 44804  97.3831 359.5254 0013892 113.2716 355.3410 15.19313966161722"
"2.0","GENERATED VIA SPACE-TRACK.ORG API","2022-10-28T06:36:12","18 SPCS","CARTOSAT 3","2019-081A","EARTH","TEME","UTC","SGP4","2022-10-27T23:00:53.056224","15.19314682","0.00139510","97.3830","359.7173","112.7936","349.3693","0","U","44804","999","16175","0.00016923000000","0.00003514","0.0000000000000","6886.048","94.780","517.519","498.306","PAYLOAD","LARGE","IND","2019-11-27","SRI",null,"3636058","216339858","0 CARTOSAT 3","1 44804U 19081A   22300.95894741  .00003514  00000-0  16923-3 0  9990","2 44804  97.3830 359.7173 0013951 112.7936 349.3693 15.19314682161752"
"2.0","GENERATED VIA SPACE-TRACK.ORG API","2022-10-28T14:16:12","18 SPCS","CARTOSAT 3","2019-081A","EARTH","TEME","UTC","SGP4","2022-10-28T10:08:50.834112","15.19317311","0.00139870","97.3829","0.1709","111.4283","6.2280","0","U","44804","999","16182","0.00016509000000","0.00003427","0.0000000000000","6886.040","94.779","517.536","498.273","PAYLOAD","LARGE","IND","2019-11-27","SRI",null,"3636643","216349904","0 CARTOSAT 3","1 44804U 19081A   22301.42281058  .00003427  00000-0  16509-3 0  9997","2 44804  97.3829   0.1709 0013987 111.4283   6.2280 15.19317311161823"
"2.0","GENERATED VIA SPACE-TRACK.ORG API","2022-10-28T18:02:48","18 SPCS","CARTOSAT 3","2019-081A","EARTH","TEME","UTC","SGP4","2022-10-28T10:08:50.834112","15.19317311","0.00139870","97.3829","0.1709","111.4283","6.2280","0","U","44804","999","16182","0.00016509000000","0.00003427","0.0000000000000","6886.040","94.779","517.536","498.273","PAYLOAD","LARGE","IND","2019-11-27","SRI",null,"3636776","216372062","0 CARTOSAT 3","1 44804U 19081A   22301.42281058  .00003427  00000-0  16509-3 0  9997","2 44804  97.3829   0.1709 0013987 111.4283   6.2280 15.19317311161823"
"2.0","GENERATED VIA SPACE-TRACK.ORG API","2022-10-28T22:16:12","18 SPCS","CARTOSAT 3","2019-081A","EARTH","TEME","UTC","SGP4","2022-10-28T19:42:24.411168","15.19319545","0.00140010","97.3830","0.5604","110.1270","24.6840","0","U","44804","999","16188","0.00016179000000","0.00003357","0.0000000000000","6886.033","94.779","517.539","498.257","PAYLOAD","LARGE","IND","2019-11-27","SRI",null,"3636834","216379391","0 CARTOSAT 3","1 44804U 19081A   22301.82111587  .00003357  00000-0  16179-3 0  9995","2 44804  97.3830   0.5604 0014001 110.1270  24.6840 15.19319545161886"
"2.0","GENERATED VIA SPACE-TRACK.ORG API","2022-10-29T02:27:52","18 SPCS","CARTOSAT 3","2019-081A","EARTH","TEME","UTC","SGP4","2022-10-28T22:30:23.010048","15.19319833","0.00140100","97.3829","0.6742","109.7352","302.6905","0","U","44804","999","16190","0.00015899000000","0.00003298","0.0000000000000","6886.032","94.779","517.544","498.250","PAYLOAD","LARGE","IND","2019-11-27","SRI",null,"3637111","216405562","0 CARTOSAT 3","1 44804U 19081A   22301.93776632  .00003298  00000-0  15899-3 0  9997","2 44804  97.3829   0.6742 0014010 109.7352 302.6905 15.19319833161907"
"2.0","GENERATED VIA SPACE-TRACK.ORG API","2022-10-29T06:26:11","18 SPCS","CARTOSAT 3","2019-081A","EARTH","TEME","UTC","SGP4","2022-10-29T03:16:00.117408","15.19321056","0.00140130","97.3827","0.8679","109.3871","307.2111","0","U","44804","999","16193","0.00015785000000","0.00003274","0.0000000000000","6886.028","94.779","517.543","498.244","PAYLOAD","LARGE","IND","2019-11-27","SRI",null,"3637130","216411725","0 CARTOSAT 3","1 44804U 19081A   22302.13611247  .00003274  00000-0  15785-3 0  9998","2 44804  97.3827   0.8679 0014013 109.3871 307.2111 15.19321056161934"
"2.0","GENERATED VIA SPACE-TRACK.ORG API","2022-10-29T18:36:28","18 SPCS","CARTOSAT 3","2019-081A","EARTH","TEME","UTC","SGP4","2022-10-29T11:29:00.301344","15.19323026","0.00139690","97.3826","1.2026","108.2960","19.6810","0","U","44804","999","16198","0.00015529000000","0.00003220","0.0000000000000","6886.022","94.779","517.506","498.268","PAYLOAD","LARGE","IND","2019-11-27","SRI",null,"3637424","216438631","0 CARTOSAT 3","1 44804U 19081A   22302.47847571  .00003220  00000-0  15529-3 0  9993","2 44804  97.3826   1.2026 0013969 108.2960  19.6810 15.19323026161984"
"2.0","GENERATED VIA SPACE-TRACK.ORG API","2022-10-30T00:36:13","18 SPCS","CARTOSAT 3","2019-081A","EARTH","TEME","UTC","SGP4","2022-10-29T20:53:28.673664","15.19325382","0.00140280","97.3823","1.5851","106.9372","3.7139","0","U","44804","999","16204","0.00015277000000","0.00003167","0.0000000000000","6886.015","94.779","517.540","498.221","PAYLOAD","LARGE","IND","2019-11-27","SRI",null,"3637443","216444819","0 CARTOSAT 3","1 44804U 19081A   22302.87047076  .00003167  00000-0  15277-3 0  9999","2 44804  97.3823   1.5851 0014028 106.9372   3.7139 15.19325382162042"
"2.0","GENERATED VIA SPACE-TRACK.ORG API","2022-10-30T05:36:09","18 SPCS","CARTOSAT 3","2019-081A","EARTH","TEME","UTC","SGP4","2022-10-29T20:53:28.673664","15.19325382","0.00140280","97.3823","1.5851","106.9372","3.7139","0","U","44804","999","16204","0.00015277000000","0.00003167","0.0000000000000","6886.015","94.779","517.540","498.221","PAYLOAD","LARGE","IND","2019-11-27","SRI",null,"3637863","216474694","0 CARTOSAT 3","1 44804U 19081A   22302.87047076  .00003167  00000-0  15277-3 0  9999","2 44804  97.3823   1.5851 0014028 106.9372   3.7139 15.19325382162042"
"2.0","GENERATED VIA SPACE-TRACK.ORG API","2022-10-30T19:21:03","18 SPCS","CARTOSAT 3","2019-081A","EARTH","TEME","UTC","SGP4","2022-10-30T06:05:34.162368","15.19328701","0.00140550","97.3824","1.9600","105.9923","300.3447","0","U","44804","999","16210","0.00015662000000","0.00003249","0.0000000000000","6886.005","94.779","517.548","498.192","PAYLOAD","LARGE","IND","2019-11-27","SRI",null,"3637867","216499369","0 CARTOSAT 3","1 44804U 19081A   22303.25386762  .00003249  00000-0  15662-3 0  9999","2 44804  97.3824   1.9600 0014055 105.9923 300.3447 15.19328701162103"
"2.0","GENERATED VIA SPACE-TRACK.ORG API","2022-10-31T03:53:39","18 SPCS","CARTOSAT 3","2019-081A","EARTH","TEME","UTC","SGP4","2022-10-30T19:05:51.604224","15.19333771","0.00140610","97.3821","2.4893","104.4605","23.7928","0","U","44804","999","16218","0.00016409000000","0.00003407","0.0000000000000","6885.990","94.778","517.537","498.172","PAYLOAD","LARGE","IND","2019-11-27","SRI",null,"3637924","216526942","0 CARTOSAT 3","1 44804U 19081A   22303.79573616  .00003407  00000-0  16409-3 0  9990","2 44804  97.3821   2.4893 0014061 104.4605  23.7928 15.19333771162189"
